[{"OBJECT_NAME":"ONEWEB-0518","OBJECT_ID":"2022-138Z","EPOCH":"2025-11-14T01:16:53.553504","MEAN_MOTION":13.1972663,"ECCENTRICITY":0.00019546,"INCLINATION":87.9214,"RA_OF_ASC_NODE":347.793,"ARG_OF_PERICENTER":98.4425,"MEAN_ANOMALY":261.693,"EPHEMERIS_TYPE":0,"CLASSIFICATION_TYPE":"U","NORAD_CAT_ID":54136,"ELEMENT_SET_NO":999,"REV_AT_EPOCH":14845,"BSTAR":-7.8951633e-5,"MEAN_MOTION_DOT":-1.9e-7,"MEAN_MOTION_DDOT":0},{"OBJECT_NAME":"ONEWEB-0519","OBJECT_ID":"2022-138AA","EPOCH":"2025-11-14T03:42:27.811584","MEAN_MOTION":13.19726206,"ECCENTRICITY":0.00016905,"INCLINATION":87.9229,"RA_OF_ASC_NODE":347.7374,"ARG_OF_PERICENTER":101.5553,"MEAN_ANOMALY":258.577,"EPHEMERIS_TYPE":0,"CLASSIFICATION_TYPE":"U","NORAD_CAT_ID":54137,"ELEMENT_SET_NO":999,"REV_AT_EPOCH":14847,"BSTAR":3.9234474e-5,"MEAN_MOTION_DOT":2.9e-7,"MEAN_MOTION_DDOT":0},{"OBJECT_NAME":"ONEWEB-0520","OBJECT_ID":"2022-138AB","EPOCH":"2025-11-14T02:43:19.057728","MEAN_MOTION":13.19726659,"ECCENTRICITY":0.0002149,"INCLINATION":87.9233,"RA_OF_ASC_NODE":347.75,"ARG_OF_PERICENTER":99.877,"MEAN_ANOMALY":260.2605,"EPHEMERIS_TYPE":0,"CLASSIFICATION_TYPE":"U","NORAD_CAT_ID":54138,"ELEMENT_SET_NO":999,"REV_AT_EPOCH":14845,"BSTAR":4.6765802e-5,"MEAN_MOTION_DOT":3.2e-7,"MEAN_MOTION_DDOT":0},{"OBJECT_NAME":"ONEWEB-0521","OBJECT_ID":"2022-138AC","EPOCH":"2025-11-14T03:31:04.621728","MEAN_MOTION":13.19727216,"ECCENTRICITY":0.00015877,"INCLINATION":87.9227,"RA_OF_ASC_NODE":347.728,"ARG_OF_PERICENTER":98.2623,"MEAN_ANOMALY":261.869,"EPHEMERIS_TYPE":0,"CLASSIFICATION_TYPE":"U","NORAD_CAT_ID":54139,"ELEMENT_SET_NO":999,"REV_AT_EPOCH":14840,"BSTAR":6.6944332e-5,"MEAN_MOTION_DOT":4.0e-7,"MEAN_MOTION_DDOT":0},{"OBJECT_NAME":"ONEWEB-0522","OBJECT_ID":"2022-138AD","EPOCH":"2025-11-14T01:12:20.043072","MEAN_MOTION":13.19723778,"ECCENTRICITY":0.00019688,"INCLINATION":87.9233,"RA_OF_ASC_NODE":347.7482,"ARG_OF_PERICENTER":99.5371,"MEAN_ANOMALY":260.5984,"EPHEMERIS_TYPE":0,"CLASSIFICATION_TYPE":"U","NORAD_CAT_ID":54140,"ELEMENT_SET_NO":999,"REV_AT_EPOCH":14843,"BSTAR":0.00020058241,"MEAN_MOTION_DOT":9.3e-7,"MEAN_MOTION_DDOT":0},{"OBJECT_NAME":"ONEWEB-0523","OBJECT_ID":"2022-138AE","EPOCH":"2025-11-14T00:47:06.823104","MEAN_MOTION":13.207719,"ECCENTRICITY":0.0001399,"INCLINATION":87.9179,"RA_OF_ASC_NODE":317.3512,"ARG_OF_PERICENTER":64.0773,"MEAN_ANOMALY":296.0504,"EPHEMERIS_TYPE":0,"CLASSIFICATION_TYPE":"U","NORAD_CAT_ID":54141,"ELEMENT_SET_NO":999,"REV_AT_EPOCH":15090,"BSTAR":-3.4917166e-5,"MEAN_MOTION_DOT":-1.0e-8,"MEAN_MOTION_DDOT":0},{"OBJECT_NAME":"ONEWEB-0524","OBJECT_ID":"2022-138AF","EPOCH":"2025-11-14T00:31:12.506592","MEAN_MOTION":13.20771214,"ECCENTRICITY":0.00023149,"INCLINATION":87.9177,"RA_OF_ASC_NODE":317.3553,"ARG_OF_PERICENTER":67.8861,"MEAN_ANOMALY":292.2518,"EPHEMERIS_TYPE":0,"CLASSIFICATION_TYPE":"U","NORAD_CAT_ID":54142,"ELEMENT_SET_NO":999,"REV_AT_EPOCH":15090,"BSTAR":6.1183736e-5,"MEAN_MOTION_DOT":3.8e-7,"MEAN_MOTION_DDOT":0},{"OBJECT_NAME":"ONEWEB-0525","OBJECT_ID":"2022-138AG","EPOCH":"2025-11-14T03:28:48.516672","MEAN_MOTION":13.19726348,"ECCENTRICITY":0.00021,"INCLINATION":87.9222,"RA_OF_ASC_NODE":347.751,"ARG_OF_PERICENTER":100.5363,"MEAN_ANOMALY":259.6007,"EPHEMERIS_TYPE":0,"CLASSIFICATION_TYPE":"U","NORAD_CAT_ID":54143,"ELEMENT_SET_NO":999,"REV_AT_EPOCH":14846,"BSTAR":-8.8887265e-5,"MEAN_MOTION_DOT":-2.3e-7,"MEAN_MOTION_DDOT":0},{"OBJECT_NAME":"ONEWEB-0526","OBJECT_ID":"2022-138AH","EPOCH":"2025-11-14T07:54:56.028096","MEAN_MOTION":13.1972725,"ECCENTRICITY":0.00019044,"INCLINATION":87.9228,"RA_OF_ASC_NODE":347.7016,"ARG_OF_PERICENTER":95.4957,"MEAN_ANOMALY":264.6393,"EPHEMERIS_TYPE":0,"CLASSIFICATION_TYPE":"U","NORAD_CAT_ID":54144,"ELEMENT_SET_NO":999,"REV_AT_EPOCH":14846,"BSTAR":0.00035679778,"MEAN_MOTION_DOT":1.56e-6,"MEAN_MOTION_DDOT":0},{"OBJECT_NAME":"ONEWEB-0529","OBJECT_ID":"2022-138AJ","EPOCH":"2025-11-14T02:31:57.166464","MEAN_MOTION":13.19725819,"ECCENTRICITY":0.00020417,"INCLINATION":87.9216,"RA_OF_ASC_NODE":347.7776,"ARG_OF_PERICENTER":97.4004,"MEAN_ANOMALY":262.7361,"EPHEMERIS_TYPE":0,"CLASSIFICATION_TYPE":"U","NORAD_CAT_ID":54145,"ELEMENT_SET_NO":999,"REV_AT_EPOCH":14845,"BSTAR":-7.118746e-5,"MEAN_MOTION_DOT":-1.6e-7,"MEAN_MOTION_DDOT":0},{"OBJECT_NAME":"ONEWEB-0531","OBJECT_ID":"2022-138AK","EPOCH":"2025-11-14T00:10:43.959936","MEAN_MOTION":13.20773489,"ECCENTRICITY":0.00016897,"INCLINATION":87.9182,"RA_OF_ASC_NODE":317.3495,"ARG_OF_PERICENTER":62.1099,"MEAN_ANOMALY":298.0206,"EPHEMERIS_TYPE":0,"CLASSIFICATION_TYPE":"U","NORAD_CAT_ID":54146,"ELEMENT_SET_NO":999,"REV_AT_EPOCH":15090,"BSTAR":4.1305912e-5,"MEAN_MOTION_DOT":3.0e-7,"MEAN_MOTION_DDOT":0},{"OBJECT_NAME":"ONEWEB-0535","OBJECT_ID":"2022-138AL","EPOCH":"2025-11-14T03:19:42.602592","MEAN_MOTION":13.19727082,"ECCENTRICITY":0.00014906,"INCLINATION":87.923,"RA_OF_ASC_NODE":347.7347,"ARG_OF_PERICENTER":89.5159,"MEAN_ANOMALY":270.6144,"EPHEMERIS_TYPE":0,"CLASSIFICATION_TYPE":"U","NORAD_CAT_ID":54147,"ELEMENT_SET_NO":999,"REV_AT_EPOCH":14847,"BSTAR":-8.0378266e-5,"MEAN_MOTION_DOT":-1.9e-7,"MEAN_MOTION_DDOT":0},{"OBJECT_NAME":"ONEWEB-0536","OBJECT_ID":"2022-138AM","EPOCH":"2025-11-13T11:08:56.694912","MEAN_MOTION":13.20771764,"ECCENTRICITY":0.0001938,"INCLINATION":87.9178,"RA_OF_ASC_NODE":317.5036,"ARG_OF_PERICENTER":58.0296,"MEAN_ANOMALY":302.1025,"EPHEMERIS_TYPE":0,"CLASSIFICATION_TYPE":"U","NORAD_CAT_ID":54148,"ELEMENT_SET_NO":999,"REV_AT_EPOCH":15082,"BSTAR":-9.0213e-6,"MEAN_MOTION_DOT":9.0e-8,"MEAN_MOTION_DDOT":0},{"OBJECT_NAME":"ONEWEB-0527","OBJECT_ID":"2022-166A","EPOCH":"2025-11-13T15:54:47.073312","MEAN_MOTION":13.21825078,"ECCENTRICITY":0.00019119,"INCLINATION":87.9181,"RA_OF_ASC_NODE":286.9924,"ARG_OF_PERICENTER":83.8463,"MEAN_ANOMALY":276.2889,"EPHEMERIS_TYPE":0,"CLASSIFICATION_TYPE":"U","NORAD_CAT_ID":54642,"ELEMENT_SET_NO":999,"REV_AT_EPOCH":14306,"BSTAR":0.0001150701,"MEAN_MOTION_DOT":6.1e-7,"MEAN_MOTION_DDOT":0},{"OBJECT_NAME":"ONEWEB-0528","OBJECT_ID":"2022-166B","EPOCH":"2025-11-14T06:36:19.204992","MEAN_MOTION":13.21824559,"ECCENTRICITY":0.00019902,"INCLINATION":87.9176,"RA_OF_ASC_NODE":286.8745,"ARG_OF_PERICENTER":81.0708,"MEAN_ANOMALY":279.0651,"EPHEMERIS_TYPE":0,"CLASSIFICATION_TYPE":"U","NORAD_CAT_ID":54643,"ELEMENT_SET_NO":999,"REV_AT_EPOCH":14315,"BSTAR":-0.0001157617,"MEAN_MOTION_DOT":-3.5e-7,"MEAN_MOTION_DDOT":0},{"OBJECT_NAME":"ONEWEB-0539","OBJECT_ID":"2022-166C","EPOCH":"2025-11-14T07:30:47.536416","MEAN_MOTION":13.21829227,"ECCENTRICITY":0.00018128,"INCLINATION":87.9182,"RA_OF_ASC_NODE":286.8322,"ARG_OF_PERICENTER":91.6831,"MEAN_ANOMALY":268.4511,"EPHEMERIS_TYPE":0,"CLASSIFICATION_TYPE":"U","NORAD_CAT_ID":54644,"ELEMENT_SET_NO":999,"REV_AT_EPOCH":14315,"BSTAR":4.0716177e-5,"MEAN_MOTION_DOT":3.0e-7,"MEAN_MOTION_DDOT":0},{"OBJECT_NAME":"ONEWEB-0540","OBJECT_ID":"2022-166D","EPOCH":"2025-11-13T15:19:27.783264","MEAN_MOTION":13.21818485,"ECCENTRICITY":0.00018718,"INCLINATION":87.9181,"RA_OF_ASC_NODE":287.0054,"ARG_OF_PERICENTER":88.3768,"MEAN_ANOMALY":271.7581,"EPHEMERIS_TYPE":0,"CLASSIFICATION_TYPE":"U","NORAD_CAT_ID":54645,"ELEMENT_SET_NO":999,"REV_AT_EPOCH":14305,"BSTAR":0.004506751,"MEAN_MOTION_DOT":1.874e-5,"MEAN_MOTION_DDOT":0}]
