ONEWEB-0518             
1 54136U 22138Z   25318.05339761 -.00000019  00000+0 -78952-4 0  9994
2 54136  87.9214 347.7930 0001954  98.4425 261.6930 13.19726630148453
ONEWEB-0519             
1 54137U 22138AA  25318.15448856  .00000029  00000+0  39234-4 0  9991
2 54137  87.9229 347.7374 0001690 101.5553 258.5770 13.19726206148475
ONEWEB-0520             
1 54138U 22138AB  25318.11341502  .00000032  00000+0  46766-4 0  9990
2 54138  87.9233 347.7500 0002149  99.8770 260.2605 13.19726659148459
ONEWEB-0521             
1 54139U 22138AC  25318.14658127  .00000040  00000+0  66944-4 0  9997
2 54139  87.9227 347.7280 0001587  98.2623 261.8690 13.19727216148409
ONEWEB-0522             
1 54140U 22138AD  25318.05023198  .00000093  00000+0  20058-3 0  9996
2 54140  87.9233 347.7482 0001968  99.5371 260.5984 13.19723778148433
ONEWEB-0523             
1 54141U 22138AE  25318.03271786 -.00000001  00000+0 -34917-4 0  9994
2 54141  87.9179 317.3512 0001399  64.0773 296.0504 13.20771900150900
ONEWEB-0524             
1 54142U 22138AF  25318.02167253  .00000038  00000+0  61184-4 0  9991
2 54142  87.9177 317.3553 0002314  67.8861 292.2518 13.20771214150902
ONEWEB-0525             
1 54143U 22138AG  25318.14500598 -.00000023  00000+0 -88887-4 0  9993
2 54143  87.9222 347.7510 0002100 100.5363 259.6007 13.19726348148463
ONEWEB-0526             
1 54144U 22138AH  25318.32981514  .00000156  00000+0  35680-3 0  9992
2 54144  87.9228 347.7016 0001904  95.4957 264.6393 13.19727250148460
ONEWEB-0529             
1 54145U 22138AJ  25318.10552276 -.00000016  00000+0 -71187-4 0  9998
2 54145  87.9216 347.7776 0002041  97.4004 262.7361 13.19725819148451
ONEWEB-0531             
1 54146U 22138AK  25318.00745324  .00000030  00000+0  41306-4 0  9990
2 54146  87.9182 317.3495 0001689  62.1099 298.0206 13.20773489150906
ONEWEB-0535             
1 54147U 22138AL  25318.13868753 -.00000019  00000+0 -80378-4 0  9998
2 54147  87.9230 347.7347 0001490  89.5159 270.6144 13.19727082148476
ONEWEB-0536             
1 54148U 22138AM  25317.46454508  .00000009  00000+0 -90213-5 0  9991
2 54148  87.9178 317.5036 0001938  58.0296 302.1025 13.20771764150827
ONEWEB-0527             
1 54642U 22166A   25317.66304483  .00000061  00000+0  11507-3 0  9993
2 54642  87.9181 286.9924 0001911  83.8463 276.2889 13.21825078143064
ONEWEB-0528             
1 54643U 22166B   25318.27522228 -.00000035  00000+0 -11576-3 0  9990
2 54643  87.9176 286.8745 0001990  81.0708 279.0651 13.21824559143159
ONEWEB-0539             
1 54644U 22166C   25318.31305019  .00000030  00000+0  40716-4 0  9995
2 54644  87.9182 286.8322 0001812  91.6831 268.4511 13.21829227143159
ONEWEB-0540             
1 54645U 22166D   25317.63851601  .00001874  00000+0  45068-2 0  9993
2 54645  87.9181 287.0054 0001871  88.3768 271.7581 13.21818485143058
